TOMORROW-S1             
1 60479U 24149M   26195.74879938  .00004338  00000+0  13817-3 0  9994
2 60479  97.3748 276.1397 0004018 132.2095 227.9489 15.33088809106313
FLOCK 4BE-18            
1 60480U 24149N   26195.78474943  .00007893  00000+0  18283-3 0  9998
2 60480  97.3738 279.8183 0005029 146.5344 213.6223 15.42705125106567
FLOCK 4BE-7             
1 60481U 24149P   26195.75267538  .00012695  00000+0  30524-3 0  9994
2 60481  97.3760 279.0770 0004257 149.9292 210.2200 15.41441547106492
TOMORROW-S2             
1 60485U 24149T   26195.77859486  .00004443  00000+0  14125-3 0  9990
2 60485  97.3816 276.6854 0003792 150.0643 210.0817 15.33137157106313
FLOCK 4BE-36            
1 60486U 24149U   26195.67662467  .00010628  00000+0  23874-3 0  9994
2 60486  97.3746 280.4490 0004732 154.4494 205.6989 15.43530757106596
FLOCK 4BE-25            
1 60487U 24149V   26195.78266303  .00008494  00000+0  21824-3 0  9997
2 60487  97.3799 279.1325 0003587 143.6636 216.4854 15.39538379106484
FLOCK 4BE-31            
1 60488U 24149W   26195.68097778  .00013445  00000+0  28550-3 0  9990
2 60488  97.3799 281.3946 0003759 152.4950 207.6499 15.45144054106620
FLOCK 4BE-20            
1 60489U 24149X   26195.75959464  .00008293  00000+0  21825-3 0  9991
2 60489  97.3695 277.9190 0005021 154.7573 205.3919 15.38803225106455
FLOCK 4BE-23            
1 60490U 24149Y   26195.75735094  .00008172  00000+0  21823-3 0  9998
2 60490  97.3779 278.3075 0004677 157.9902 202.1545 15.38358059106432
FLOCK 4BE-17            
1 60492U 24149AA  26195.76788800  .00009370  00000+0  23257-3 0  9998
2 60492  97.3775 279.3683 0004412 147.9048 212.2467 15.40562129106504
NUSAT-50 (NANCY ROMAN)  
1 60493U 24149AB  26195.96241347  .00005319  00000+0  18394-3 0  9996
2 60493  97.3787 277.0318 0004874 102.2095 257.9692 15.30316423106370
FLOCK 4BE-22            
1 60494U 24149AC  26195.78933226  .00009810  00000+0  23226-3 0  9991
2 60494  97.3735 279.6261 0004659 155.1951 204.9521 15.41978086106552
FLOCK 4BE-34            
1 60495U 24149AD  26195.74199106  .00009692  00000+0  22976-3 0  9998
2 60495  97.3784 280.4181 0004897 162.5378 197.6038 15.41941902106577
TYCHE                   
1 60496U 24149AE  26195.94038286  .00002407  00000+0  96925-4 0  9995
2 60496  97.3751 273.3829 0003100 165.7548 194.3779 15.25828856106134
FLOCK 4BE-32            
1 60497U 24149AF  26195.82123203  .00010656  00000+0  24303-3 0  9992
2 60497  97.3719 280.0638 0004921 160.4428 199.7009 15.43077567106593
NUSAT-48 (HENRIETTA LE*)
1 60498U 24149AG  26195.75525202  .00005094  00000+0  17656-3 0  9993
2 60498  97.3921 277.1172 0004704 160.0855 200.0570 15.30270403106351
NUSAT-49 (KLARA DAN VO*)
1 60500U 24149AJ  26195.73157901  .00004926  00000+0  17027-3 0  9997
2 60500  97.3780 276.8349 0002465 164.9617 195.1697 15.30377740106346
FLOCK 4BE-11            
1 60501U 24149AK  26195.21811030  .00011163  00000+0  24794-3 0  9991
2 60501  97.3704 279.7090 0004758 161.2091 198.9333 15.43855222106529
YAM-7                   
1 60504U 24149AN  26195.75136694  .00004201  00000+0  13774-3 0  9990
2 60504  97.3783 275.8939 0003554 169.3752 190.7566 15.32178171106273
FLOCK 4BE-24            
1 60505U 24149AP  26195.78519292  .00012876  00000+0  28335-3 0  9999
2 60505  97.3715 280.5518 0005136 171.5537 188.5798 15.44090722106628
LUR-1                   
1 60506U 24149AQ  26195.77271097  .00003828  00000+0  13262-3 0  9997
2 60506  97.3740 274.4053 0003908 185.3234 174.7966 15.30442974106196
TANAGER-1               
1 60507U 24149AR  26195.50092335  .00000194  00000+0  61157-5 0  9996
2 60507  97.2318 289.6368 0002289 131.3848 228.7597 15.43889256107257
EAGLEEYE                
1 60508U 24149AS  26195.83020545  .00079124  00000+0  49287-3 0  9994
2 60508  97.3719 290.8110 0004954 186.2244 173.8961 15.76689405107281
FLOCK 4BE-29            
1 60509U 24149AT  26195.77650386  .00027884  00000+0  58284-3 0  9993
2 60509  97.3816 282.0842 0003493 177.0482 183.0788 15.45454725106677
TRANSPORTER-11 OBJECT AU
1 60510U 24149AU  26195.20797811  .00008824  00000+0  21632-3 0  9998
2 60510  97.3733 279.1569 0004100 170.9410 189.1912 15.40956171106470
FLOCK 4BE-2             
1 60511U 24149AV  26195.80726923  .00040514  00000+0  58456-3 0  9997
2 60511  97.3835 283.9535 0005328 174.8073 185.3238 15.55865186106796
FLOCK 4BE-13            
1 60512U 24149AW  26195.79581014  .00008835  00000+0  20504-3 0  9999
2 60512  97.3724 280.5068 0005051 156.8857 203.2618 15.42609969106626
